ELECTRON KICK STAGE R/B 
1 65973U 25229C   25300.27749747  .00006481  00000+0  48507-3 0  9992
2 65973  41.9823 136.4567 0041356 327.3091  32.5178 15.02500064  1892
HULIANWANG DIGUI 12A    
1 65995U 25231A   25298.92228948  .00000117  00000+0  16617-3 0  9999
2 65995  50.0013 317.5889 0006545 288.5047  71.5146 14.04903841  1391
HULIANWANG DIGUI 12B    
1 65996U 25231B   25300.27755902  .00000105  00000+0  16161-3 0  9998
2 65996  49.9998 312.0930 0008981 297.8431  62.1563 14.03876187  1585
HULIANWANG DIGUI 12C    
1 65997U 25231C   25298.92121315  .00000115  00000+0  16545-3 0  9999
2 65997  49.9977 317.5788 0007636 292.5953  67.4143 14.04741689  1391
HULIANWANG DIGUI 12D    
1 65998U 25231D   25300.27187483  .00000136  00000+0  17697-3 0  9992
2 65998  50.0003 312.0636 0006594 302.2136  57.8129 14.05304059  1586
HULIANWANG DIGUI 12E    
1 65999U 25231E   25298.99142514  .00000086  00000+0  14526-3 0  9996
2 65999  50.0025 317.2904 0008184 307.0262  52.9894 14.05675308  1400
HULIANWANG DIGUI 12F    
1 66000U 25231F   25298.99035399  .00000098  00000+0  15228-3 0  9995
2 66000  50.0066 317.2912 0005664 302.6769  57.3590 14.05826000  1400
HULIANWANG DIGUI 12G    
1 66001U 25231G   25298.98965537  .00000111  00000+0  15983-3 0  9995
2 66001  50.0034 317.2818 0006933 314.4365  45.5972 14.05927778  1401
HULIANWANG DIGUI 12H    
1 66002U 25231H   25300.05637104  .00000455  00000+0  37728-3 0  9996
2 66002  50.0077 312.9393 0013216 315.5537  44.4307 14.04599931  1555
HULIANWANG DIGUI 12J    
1 66003U 25231J   25299.98325149  .00000131  00000+0  17147-3 0  9993
2 66003  50.0045 313.2095 0005650 308.9667  51.0735 14.06123893  1547
CZ-8A R/B               
1 66004U 25231K   25300.29086572 -.00000040  00000+0  44830-4 0  9995
2 66004  50.0039 310.1007 0116702 123.6025 237.6093 14.30030940  1615
STARLINK-34849          
1 66005U 25232A   25300.25002315 -.01488351  00000+0 -80401-2 0  9995
2 66005  53.1555   8.5502 0001113  72.6332  79.2702 15.82151973  2070
