CCSDS_OMM_VERS = 2.0
CREATION_DATE  = 
ORIGINATOR     = 

OBJECT_NAME    = ELECTRON KICK STAGE R/B
OBJECT_ID      = 2025-229C
CENTER_NAME    = EARTH
REF_FRAME      = TEME
TIME_SYSTEM    = UTC
MEAN_ELEMENT_THEORY = SGP/SGP4

EPOCH          = 2025-10-27T06:39:35.781408
MEAN_MOTION    = 15.02500064
ECCENTRICITY   = .00413561
INCLINATION    = 41.9823
RA_OF_ASC_NODE = 136.4567
ARG_OF_PERICENTER = 327.3091
MEAN_ANOMALY   = 32.5178

EPHEMERIS_TYPE = 0
CLASSIFICATION_TYPE = U
NORAD_CAT_ID   = 65973
ELEMENT_SET_NO = 999
REV_AT_EPOCH   = 189
BSTAR          = .48506817E-3
MEAN_MOTION_DOT = .6481E-4
MEAN_MOTION_DDOT = 0

CCSDS_OMM_VERS = 2.0
CREATION_DATE  = 
ORIGINATOR     = 

OBJECT_NAME    = HULIANWANG DIGUI 12A
OBJECT_ID      = 2025-231A
CENTER_NAME    = EARTH
REF_FRAME      = TEME
TIME_SYSTEM    = UTC
MEAN_ELEMENT_THEORY = SGP/SGP4

EPOCH          = 2025-10-25T22:08:05.811072
MEAN_MOTION    = 14.04903841
ECCENTRICITY   = .0006545
INCLINATION    = 50.0013
RA_OF_ASC_NODE = 317.5889
ARG_OF_PERICENTER = 288.5047
MEAN_ANOMALY   = 71.5146

EPHEMERIS_TYPE = 0
CLASSIFICATION_TYPE = U
NORAD_CAT_ID   = 65995
ELEMENT_SET_NO = 999
REV_AT_EPOCH   = 139
BSTAR          = .16617E-3
MEAN_MOTION_DOT = .117E-5
MEAN_MOTION_DDOT = 0

CCSDS_OMM_VERS = 2.0
CREATION_DATE  = 
ORIGINATOR     = 

OBJECT_NAME    = HULIANWANG DIGUI 12B
OBJECT_ID      = 2025-231B
CENTER_NAME    = EARTH
REF_FRAME      = TEME
TIME_SYSTEM    = UTC
MEAN_ELEMENT_THEORY = SGP/SGP4

EPOCH          = 2025-10-27T06:39:41.099328
MEAN_MOTION    = 14.03876187
ECCENTRICITY   = .00089816
INCLINATION    = 49.9998
RA_OF_ASC_NODE = 312.0930
ARG_OF_PERICENTER = 297.8431
MEAN_ANOMALY   = 62.1563

EPHEMERIS_TYPE = 0
CLASSIFICATION_TYPE = U
NORAD_CAT_ID   = 65996
ELEMENT_SET_NO = 999
REV_AT_EPOCH   = 158
BSTAR          = .16160804E-3
MEAN_MOTION_DOT = .105E-5
MEAN_MOTION_DDOT = 0

CCSDS_OMM_VERS = 2.0
CREATION_DATE  = 
ORIGINATOR     = 

OBJECT_NAME    = HULIANWANG DIGUI 12C
OBJECT_ID      = 2025-231C
CENTER_NAME    = EARTH
REF_FRAME      = TEME
TIME_SYSTEM    = UTC
MEAN_ELEMENT_THEORY = SGP/SGP4

EPOCH          = 2025-10-25T22:06:32.816160
MEAN_MOTION    = 14.04741689
ECCENTRICITY   = .0007636
INCLINATION    = 49.9977
RA_OF_ASC_NODE = 317.5788
ARG_OF_PERICENTER = 292.5953
MEAN_ANOMALY   = 67.4143

EPHEMERIS_TYPE = 0
CLASSIFICATION_TYPE = U
NORAD_CAT_ID   = 65997
ELEMENT_SET_NO = 999
REV_AT_EPOCH   = 139
BSTAR          = .16545E-3
MEAN_MOTION_DOT = .115E-5
MEAN_MOTION_DDOT = 0

CCSDS_OMM_VERS = 2.0
CREATION_DATE  = 
ORIGINATOR     = 

OBJECT_NAME    = HULIANWANG DIGUI 12D
OBJECT_ID      = 2025-231D
CENTER_NAME    = EARTH
REF_FRAME      = TEME
TIME_SYSTEM    = UTC
MEAN_ELEMENT_THEORY = SGP/SGP4

EPOCH          = 2025-10-27T06:31:29.985312
MEAN_MOTION    = 14.05304059
ECCENTRICITY   = .00065941
INCLINATION    = 50.0003
RA_OF_ASC_NODE = 312.0636
ARG_OF_PERICENTER = 302.2136
MEAN_ANOMALY   = 57.8129

EPHEMERIS_TYPE = 0
CLASSIFICATION_TYPE = U
NORAD_CAT_ID   = 65998
ELEMENT_SET_NO = 999
REV_AT_EPOCH   = 158
BSTAR          = .1769711E-3
MEAN_MOTION_DOT = .136E-5
MEAN_MOTION_DDOT = 0

CCSDS_OMM_VERS = 2.0
CREATION_DATE  = 
ORIGINATOR     = 

OBJECT_NAME    = HULIANWANG DIGUI 12E
OBJECT_ID      = 2025-231E
CENTER_NAME    = EARTH
REF_FRAME      = TEME
TIME_SYSTEM    = UTC
MEAN_ELEMENT_THEORY = SGP/SGP4

EPOCH          = 2025-10-25T23:47:39.132096
MEAN_MOTION    = 14.05675308
ECCENTRICITY   = .0008184
INCLINATION    = 50.0025
RA_OF_ASC_NODE = 317.2904
ARG_OF_PERICENTER = 307.0262
MEAN_ANOMALY   = 52.9894

EPHEMERIS_TYPE = 0
CLASSIFICATION_TYPE = U
NORAD_CAT_ID   = 65999
ELEMENT_SET_NO = 999
REV_AT_EPOCH   = 140
BSTAR          = .14526E-3
MEAN_MOTION_DOT = .86E-6
MEAN_MOTION_DDOT = 0

CCSDS_OMM_VERS = 2.0
CREATION_DATE  = 
ORIGINATOR     = 

OBJECT_NAME    = HULIANWANG DIGUI 12F
OBJECT_ID      = 2025-231F
CENTER_NAME    = EARTH
REF_FRAME      = TEME
TIME_SYSTEM    = UTC
MEAN_ELEMENT_THEORY = SGP/SGP4

EPOCH          = 2025-10-25T23:46:06.584736
MEAN_MOTION    = 14.05826000
ECCENTRICITY   = .0005664
INCLINATION    = 50.0066
RA_OF_ASC_NODE = 317.2912
ARG_OF_PERICENTER = 302.6769
MEAN_ANOMALY   = 57.3590

EPHEMERIS_TYPE = 0
CLASSIFICATION_TYPE = U
NORAD_CAT_ID   = 66000
ELEMENT_SET_NO = 999
REV_AT_EPOCH   = 140
BSTAR          = .15228E-3
MEAN_MOTION_DOT = .98E-6
MEAN_MOTION_DDOT = 0

CCSDS_OMM_VERS = 2.0
CREATION_DATE  = 
ORIGINATOR     = 

OBJECT_NAME    = HULIANWANG DIGUI 12G
OBJECT_ID      = 2025-231G
CENTER_NAME    = EARTH
REF_FRAME      = TEME
TIME_SYSTEM    = UTC
MEAN_ELEMENT_THEORY = SGP/SGP4

EPOCH          = 2025-10-25T23:45:06.223968
MEAN_MOTION    = 14.05927778
ECCENTRICITY   = .0006933
INCLINATION    = 50.0034
RA_OF_ASC_NODE = 317.2818
ARG_OF_PERICENTER = 314.4365
MEAN_ANOMALY   = 45.5972

EPHEMERIS_TYPE = 0
CLASSIFICATION_TYPE = U
NORAD_CAT_ID   = 66001
ELEMENT_SET_NO = 999
REV_AT_EPOCH   = 140
BSTAR          = .15983E-3
MEAN_MOTION_DOT = .111E-5
MEAN_MOTION_DDOT = 0

CCSDS_OMM_VERS = 2.0
CREATION_DATE  = 
ORIGINATOR     = 

OBJECT_NAME    = HULIANWANG DIGUI 12H
OBJECT_ID      = 2025-231H
CENTER_NAME    = EARTH
REF_FRAME      = TEME
TIME_SYSTEM    = UTC
MEAN_ELEMENT_THEORY = SGP/SGP4

EPOCH          = 2025-10-27T01:21:10.457856
MEAN_MOTION    = 14.04599931
ECCENTRICITY   = .00132163
INCLINATION    = 50.0077
RA_OF_ASC_NODE = 312.9393
ARG_OF_PERICENTER = 315.5537
MEAN_ANOMALY   = 44.4307

EPHEMERIS_TYPE = 0
CLASSIFICATION_TYPE = U
NORAD_CAT_ID   = 66002
ELEMENT_SET_NO = 999
REV_AT_EPOCH   = 155
BSTAR          = .37728072E-3
MEAN_MOTION_DOT = .455E-5
MEAN_MOTION_DDOT = 0

CCSDS_OMM_VERS = 2.0
CREATION_DATE  = 
ORIGINATOR     = 

OBJECT_NAME    = HULIANWANG DIGUI 12J
OBJECT_ID      = 2025-231J
CENTER_NAME    = EARTH
REF_FRAME      = TEME
TIME_SYSTEM    = UTC
MEAN_ELEMENT_THEORY = SGP/SGP4

EPOCH          = 2025-10-26T23:35:52.928736
MEAN_MOTION    = 14.06123893
ECCENTRICITY   = .000565
INCLINATION    = 50.0045
RA_OF_ASC_NODE = 313.2095
ARG_OF_PERICENTER = 308.9667
MEAN_ANOMALY   = 51.0735

EPHEMERIS_TYPE = 0
CLASSIFICATION_TYPE = U
NORAD_CAT_ID   = 66003
ELEMENT_SET_NO = 999
REV_AT_EPOCH   = 154
BSTAR          = .17147E-3
MEAN_MOTION_DOT = .131E-5
MEAN_MOTION_DDOT = 0

CCSDS_OMM_VERS = 2.0
CREATION_DATE  = 
ORIGINATOR     = 

OBJECT_NAME    = CZ-8A R/B
OBJECT_ID      = 2025-231K
CENTER_NAME    = EARTH
REF_FRAME      = TEME
TIME_SYSTEM    = UTC
MEAN_ELEMENT_THEORY = SGP/SGP4

EPOCH          = 2025-10-27T06:58:50.798208
MEAN_MOTION    = 14.30030940
ECCENTRICITY   = .01167025
INCLINATION    = 50.0039
RA_OF_ASC_NODE = 310.1007
ARG_OF_PERICENTER = 123.6025
MEAN_ANOMALY   = 237.6093

EPHEMERIS_TYPE = 0
CLASSIFICATION_TYPE = U
NORAD_CAT_ID   = 66004
ELEMENT_SET_NO = 999
REV_AT_EPOCH   = 161
BSTAR          = .44830244E-4
MEAN_MOTION_DOT = -.4E-6
MEAN_MOTION_DDOT = 0

CCSDS_OMM_VERS = 2.0
CREATION_DATE  = 
ORIGINATOR     = 

OBJECT_NAME    = STARLINK-34849
OBJECT_ID      = 2025-232A
CENTER_NAME    = EARTH
REF_FRAME      = TEME
TIME_SYSTEM    = UTC
MEAN_ELEMENT_THEORY = SGP/SGP4

EPOCH          = 2025-10-27T06:00:02.000160
MEAN_MOTION    = 15.82151973
ECCENTRICITY   = .00011138
INCLINATION    = 53.1555
RA_OF_ASC_NODE = 8.5502
ARG_OF_PERICENTER = 72.6332
MEAN_ANOMALY   = 79.2702

EPHEMERIS_TYPE = 0
CLASSIFICATION_TYPE = U
NORAD_CAT_ID   = 66005
ELEMENT_SET_NO = 999
REV_AT_EPOCH   = 207
BSTAR          = -.80401041E-2
MEAN_MOTION_DOT = -.1488351E-1
MEAN_MOTION_DDOT = 0

